NORAD_CAT_ID,OBJECT_NAME,OBJECT_TYPE,EPOCH,MEAN_MOTION,ECCENTRICITY,INCLINATION,RA_OF_ASC_NODE,ARG_OF_PERICENTER,MEAN_ANOMALY,BSTAR,MEAN_MOTION_DOT,MEAN_MOTION_DDOT,TLE_LINE0,TLE_LINE1,TLE_LINE2,SEMIMAJOR_AXIS,PERIOD,APOGEE,PERIGEE,DECAYED
53605.0,STARLINK-4693,PAYLOAD,2022-11-29 06:00:00,15.08860906,0.0001848,53.2173,214.9279,48.5236,45.9253,-0.0019997,-0.00031991,0.0,0 STARLINK-4693,1 53605U 22104T   22333.25001157 -.00031991  00000-0 -19997-2 0  9994,2 53605  53.2173 214.9279 0001848  48.5236  45.9253 15.08860906 14304,6917.816,95.436,540.96,538.403,0.0
53605.0,STARLINK-4693,PAYLOAD,2022-11-29 14:00:01,15.08809411,0.0001625,53.2176,213.43,54.7119,51.4139,0.0024886,0.00039507,0.0,0 STARLINK-4693,1 53605U 22104T   22333.58335648  .00039507  00000-0  24886-2 0  9997,2 53605  53.2176 213.4300 0001625  54.7119  51.4139 15.08809411  1303,6917.974,95.439,540.9630000000002,538.715,0.0
53605.0,STARLINK-4693,PAYLOAD,2022-11-29 22:00:00,15.08839875,0.0001781,53.2177,211.9353,51.0776,66.5605,-0.00092127,-0.0001492,0.0,0 STARLINK-4693,1 53605U 22104T   22333.91667824 -.00014920  00000-0 -92127-3 0  9996,2 53605  53.2177 211.9353 0001781  51.0776  66.5605 15.08839875  1309,6917.880999999999,95.438,540.9780000000002,538.514,0.0
53605.0,STARLINK-4693,PAYLOAD,2022-11-30 06:00:00,15.08848578,0.0001797,53.2174,210.4388,49.4609,79.7616,-0.0005884999999999,-9.644e-05,0.0,0 STARLINK-4693,1 53605U 22104T   22334.25001157 -.00009644  00000-0 -58850-3 0  9997,2 53605  53.2174 210.4388 0001797  49.4609  79.7616 15.08848578 14459,6917.854,95.437,540.962,538.476,0.0
53605.0,STARLINK-4693,PAYLOAD,2022-11-30 14:00:01,15.08841262,0.0001684,53.2174,208.9396,58.2372,82.6526,-0.00039671,-6.596e-05,0.0,0 STARLINK-4693,1 53605U 22104T   22334.58335648 -.00006596  00000-0 -39671-3 0  9991,2 53605  53.2174 208.9396 0001684  58.2372  82.6526 15.08841262  1306,6917.877,95.437,540.9069999999998,538.577,0.0
53605.0,STARLINK-4693,PAYLOAD,2022-11-30 22:00:00,15.08849067,0.0001811,53.2175,207.4416,56.9725,95.4494,-0.0038363,-0.00060843,0.0,0 STARLINK-4693,1 53605U 22104T   22334.91667824 -.00060843  00000-0 -38363-2 0  9993,2 53605  53.2175 207.4416 0001811  56.9725  95.4494 15.08849067  1300,6917.853,95.437,540.97,538.465,0.0
53605.0,STARLINK-4693,PAYLOAD,2022-12-01 14:00:01,15.08825078,0.0001795,53.2174,204.4524,61.5556,114.031,0.002436,0.00038678,0.0,0 STARLINK-4693,1 53605U 22104T   22335.58334491  .00038678  00000-0  24360-2 0  9999,2 53605  53.2174 204.4524 0001795  61.5556 114.0310 15.08825078  1302,6917.926,95.438,541.033,538.549,0.0
53605.0,STARLINK-4693,PAYLOAD,2022-12-01 22:00:00,15.08845551,0.0001941,53.2173,202.9578,56.7026,130.4759,-0.00034679,-5.804e-05,0.0,0 STARLINK-4693,1 53605U 22104T   22335.91667824 -.00005804  00000-0 -34679-3 0  9997,2 53605  53.2173 202.9578 0001941  56.7026 130.4759 15.08845551 14709,6917.863,95.437,541.071,538.386,0.0
53605.0,STARLINK-4693,PAYLOAD,2022-12-02 14:00:01,15.08817112,0.0001771999999999,53.2171,199.9635,61.3499,149.0276,0.0020535,0.00032524,0.0,0 STARLINK-4693,1 53605U 22104T   22336.58334491  .00032524  00000-0  20535-2 0  9994,2 53605  53.2171 199.9635 0001772  61.3499 149.0276 15.08817112  1308,6917.95,95.439,541.0409999999998,538.589,0.0
53605.0,STARLINK-4693,PAYLOAD,2022-12-02 22:00:00,15.08831699,0.0001941,53.217,198.4689,55.8798,166.0817,-1.7621e-05,-5.69e-06,0.0,0 STARLINK-4693,1 53605U 22104T   22336.91667824 -.00000569  00000-0 -17621-4 0  9990,2 53605  53.2170 198.4689 0001941  55.8798 166.0817 15.08831699  1304,6917.906,95.438,541.114,538.428,0.0
53605.0,STARLINK-4693,PAYLOAD,2022-12-03 06:00:00,15.08855868,0.0001897,53.2169,196.972,55.4166,178.1258,-0.0018072,-0.00028948,0.0,0 STARLINK-4693,1 53605U 22104T   22337.25001157 -.00028948  00000-0 -18072-2 0  9999,2 53605  53.2169 196.9720 0001897  55.4166 178.1258 15.08855868 14903,6917.831999999999,95.437,541.009,538.385,0.0
53605.0,STARLINK-4693,PAYLOAD,2022-12-03 14:00:01,15.08834104,0.000186,53.217,195.4745,61.914,183.2288,0.0018839,0.00029817,0.0,0 STARLINK-4693,1 53605U 22104T   22337.58334491  .00029817  00000-0  18839-2 0  9990,2 53605  53.2170 195.4745 0001860  61.9140 183.2288 15.08834104  1300,6917.898,95.438,541.05,538.477,0.0
53605.0,STARLINK-4693,PAYLOAD,2022-12-03 22:00:00,15.08855154,0.0001999,53.217,193.98,55.8801,200.8646,-0.0020617,-0.00032965,0.0,0 STARLINK-4693,1 53605U 22104T   22337.91667824 -.00032965  00000-0 -20617-2 0  9993,2 53605  53.2170 193.9800 0001999  55.8801 200.8646 15.08855154 15008,6917.834,95.437,541.082,538.316,0.0
53605.0,STARLINK-4693,PAYLOAD,2022-12-04 14:00:01,15.08824557,0.0001862,53.2171,190.9855,60.5341,219.3959,0.0017709,0.00027997,0.0,0 STARLINK-4693,1 53605U 22104T   22338.58334491  .00027997  00000-0  17709-2 0  9993,2 53605  53.2171 190.9855 0001862  60.5341 219.3959 15.08824557  1300,6917.928000000001,95.439,541.081,538.504,0.0
53605.0,STARLINK-4693,PAYLOAD,2022-12-04 22:00:00,15.08830961,0.0002051,53.2171,189.491,54.8847,236.6364,0.00067222,0.00010424,0.0,0 STARLINK-4693,1 53605U 22104T   22338.91667824  .00010424  00000-0  67222-3 0  9992,2 53605  53.2171 189.4910 0002051  54.8847 236.6364 15.08830961  1301,6917.908,95.438,541.192,538.354,0.0
53605.0,STARLINK-4693,PAYLOAD,2022-12-05 06:00:00,15.08862827,0.0001962,53.217,187.9938,55.1941,247.9136,-0.0018683,-0.00029918,0.0,0 STARLINK-4693,1 53605U 22104T   22339.25001157 -.00029918  00000-0 -18683-2 0  9997,2 53605  53.2170 187.9938 0001962  55.1941 247.9136 15.08862827 15204,6917.811,95.436,541.033,538.318,0.0
53605.0,STARLINK-4693,PAYLOAD,2022-12-05 12:00:00,15.08840728,0.0001883,53.217,186.8705,59.8823,161.9372,0.0015024,0.00023704,0.0,0 STARLINK-4693,1 53605U 22104T   22339.50001157  .00023704  00000-0  15024-2 0  9996,2 53605  53.2170 186.8705 0001883  59.8823 161.9372 15.08840728  1305,6917.878000000002,95.438,541.0459999999998,538.441,0.0
53605.0,STARLINK-4693,PAYLOAD,2022-12-05 17:22:48,15.08846926,0.000202,53.2185,185.8654,57.2206,302.898,5.4345e-05,5.77e-06,0.0,0 STARLINK-4693,1 53605U 22104T   22339.72417354  .00000577  00000-0  54345-4 0  9994,2 53605  53.2185 185.8654 0002020  57.2206 302.8980 15.08846926 15283,6917.859,95.437,541.122,538.327,0.0
53605.0,STARLINK-4693,PAYLOAD,2022-12-05 20:33:34,15.08847039,0.0002017,53.2185,185.2707,57.3326,302.786,5.4549e-05,5.8e-06,0.0,0 STARLINK-4693,1 53605U 22104T   22339.85665288  .00000580  00000-0  54549-4 0  9999,2 53605  53.2185 185.2707 0002017  57.3326 302.7860 15.08847039 15996,6917.859,95.437,541.119,538.3290000000002,0.0
53605.0,STARLINK-4693,PAYLOAD,2022-12-06 01:19:44,15.08837458,0.0002093,53.2182,184.3785,54.4926,305.6261,-1.4557e-05,-5.2e-06,0.0,0 STARLINK-4693,1 53605U 22104T   22340.05538126 -.00000520  00000-0 -14557-4 0  9994,2 53605  53.2182 184.3785 0002093  54.4926 305.6261 15.08837458 15336,6917.888000000001,95.438,541.201,538.305,0.0
53605.0,STARLINK-4693,PAYLOAD,2022-12-06 14:02:50,15.08835035,0.0001833,53.2184,181.9993,59.0593,301.0579,2.452e-05,1.02e-06,0.0,0 STARLINK-4693,1 53605U 22104T   22340.58530172  .00000102  00000-0  24520-4 0  9990,2 53605  53.2184 181.9993 0001833  59.0593 301.0579 15.08835035 16101,6917.896,95.438,541.029,538.493,0.0
53605.0,STARLINK-4693,PAYLOAD,2022-12-06 21:59:46,15.0882851,0.0001675,53.2183,180.5104,67.4828,292.6341,-5.2905e-05,-1.13e-05,0.0,0 STARLINK-4693,1 53605U 22104T   22340.91650892 -.00001130  00000-0 -52905-4 0  9991,2 53605  53.2183 180.5104 0001675  67.4828 292.6341 15.08828510 15467,6917.916,95.438,540.939,538.622,0.0
53605.0,STARLINK-4693,PAYLOAD,2022-12-07 20:15:11,15.08829732,0.0001746,53.2188,176.3501,57.2098,302.9062,-6.7022e-05,-1.354e-05,0.0,0 STARLINK-4693,1 53605U 22104T   22341.84387826 -.00001354  00000-0 -67022-4 0  9992,2 53605  53.2188 176.3501 0001746  57.2098 302.9062 15.08829732 16295,6917.9119999999975,95.438,540.985,538.569,0.0
53605.0,STARLINK-4693,PAYLOAD,2022-12-07 23:25:56,15.08841204,0.0001763,53.2179,175.7541,61.4991,298.6179,-0.00018869,-3.2899999999999987e-05,0.0,0 STARLINK-4693,1 53605U 22104T   22341.97635389 -.00003290  00000-0 -18869-3 0  9991,2 53605  53.2179 175.7541 0001763  61.4991 298.6179 15.08841204 15624,6917.877,95.437,540.961,538.5219999999998,0.0
53605.0,STARLINK-4693,PAYLOAD,2022-12-08 12:09:02,15.08827769,0.0001841,53.2178,173.375,58.8783,301.2390000000001,3.54e-05,2.75e-06,0.0,0 STARLINK-4693,1 53605U 22104T   22342.50628153  .00000275  00000-0  35400-4 0  9991,2 53605  53.2178 173.3750 0001841  58.8783 301.2390 15.08827769 16396,6917.918000000002,95.438,541.056,538.509,0.0
53605.0,STARLINK-4693,PAYLOAD,2022-12-08 23:16:44,15.0884749,0.0001786999999999,53.219,171.2941,62.3305,297.7869,-0.00019503,-3.391e-05,0.0,0 STARLINK-4693,1 53605U 22104T   22342.96995771 -.00003391  00000-0 -19503-3 0  9993,2 53605  53.2190 171.2941 0001787  62.3305 297.7869 15.08847490 15772,6917.857,95.437,540.9590000000002,538.486,0.0
53605.0,STARLINK-4693,PAYLOAD,2022-12-09 05:38:17,15.08815516,5.14e-05,53.2191,170.1054,332.7554,27.3411,3.987e-05,3.47e-06,0.0,0 STARLINK-4693,1 53605U 22104T   22343.23492775  .00000347  00000-0  39870-4 0  9996,2 53605  53.2191 170.1054 0000514 332.7554  27.3411 15.08815516 16509,6917.955,95.439,540.1759999999998,539.465,0.0
53605.0,STARLINK-4693,PAYLOAD,2022-12-09 23:07:31,15.08835066,0.0001065,53.2193,166.8346,91.9487,268.1628,0.00015748,2.219e-05,0.0,0 STARLINK-4693,1 53605U 22104T   22343.96356088  .00002219  00000-0  15748-3 0  9999,2 53605  53.2193 166.8346 0001065  91.9487 268.1628 15.08835066 15920,6917.895,95.438,540.497,539.024,0.0
53605.0,STARLINK-4693,PAYLOAD,2022-12-10 11:50:38,15.0880506,0.0002119,53.2193,164.4557,62.7972,297.3236,0.00064487,9.98e-05,0.0,0 STARLINK-4693,1 53605U 22104T   22344.49349742  .00009980  00000-0  64487-3 0  9993,2 53605  53.2193 164.4557 0002119  62.7972 297.3236 15.08805060 16699,6917.986999999999,95.44,541.318,538.386,0.0
